"{\n    \"CCSDS_OMM_VERS\": \"2.0\",\n    \"COMMENT\": \"GENERATED VIA SPACE-TRACK.ORG API\",\n    \"CREATION_DATE\": \"2025-08-31T17:37:22\",\n    \"ORIGINATOR\": \"18 SPCS\",\n    \"OBJECT_NAME\": \"NAVSTAR 60 (USA 196)\",\n    \"OBJECT_ID\": \"2007-047A\",\n    \"CENTER_NAME\": \"EARTH\",\n    \"REF_FRAME\": \"TEME\",\n    \"TIME_SYSTEM\": \"UTC\",\n    \"MEAN_ELEMENT_THEORY\": \"SGP4\",\n    \"EPOCH\": \"2025-08-31T13:11:41.011872\",\n    \"MEAN_MOTION\": \"2.0056886464\",\n    \"ECCENTRICITY\": \"0.016413854\",\n    \"INCLINATION\": \"53.878799\",\n    \"RA_OF_ASC_NODE\": \"92.020558\",\n    \"ARG_OF_PERICENTER\": \"83.312315\",\n    \"MEAN_ANOMALY\": \"278.63113\",\n    \"EPHEMERIS_TYPE\": \"0\",\n    \"CLASSIFICATION_TYPE\": \"U\",\n    \"NORAD_CAT_ID\": \"32260\",\n    \"ELEMENT_SET_NO\": \"999\",\n    \"REV_AT_EPOCH\": \"13100\",\n    \"BSTAR\": \"0\",\n    \"MEAN_MOTION_DOT\": \"-0.000000119869\",\n    \"MEAN_MOTION_DDOT\": \"0\",\n    \"TLE_LINE0\": \"0 NAVSTAR 60 (USA 196)\",\n    \"TLE_LINE1\": \"1 32260U 07047A   25243.54978023 -.00000012  00000-0  00000-0 0  9999\",\n    \"TLE_LINE2\": \"2 32260  53.8788  92.0206 0164139  83.3123 278.6311  2.00568865131000\",\n    \"SEMIMAJOR_AXIS\": \"26559.883\",\n    \"PERIOD\": \"717.958\",\n    \"APOAPSIS\": \"20617.698\",\n    \"PERIAPSIS\": \"19745.798\",\n    \"OBJECT_TYPE\": \"PAYLOAD\",\n    \"DECAYED\": \"0\"\n}"